start=new Date('2023-02-08T00:00:00.000Z').valueOf();
sats=[{"OBJECT_TYPE":"PAYLOAD","MEAN_ELEMENT_THEORY":"SGP4","MEAN_ANOMALY":"269.5585","RCS_SIZE":"LARGE","MEAN_MOTION_DDOT":"0.0000000000000","REV_AT_EPOCH":"9726","NORAD_CAT_ID":"48362","COUNTRY_CODE":"US","ELEMENT_SET_NO":"999","ARG_OF_PERICENTER":"90.5557","TLE_LINE1":"1 48362U 21038K   23038.36714919  .00005009  00000-0  35478-3 0  9997","DECAY_DATE":null,"PERIAPSIS":"546.248","FILE":"3777208","ECCENTRICITY":"0.00013310","EPOCH":"2023-02-07T08:48:41.690016","REF_FRAME":"TEME","GP_ID":"224704142","PERIOD":"95.591","TLE_LINE2":"2 48362  53.0567  17.9584 0001331  90.5557 269.5585 15.06414140 97264","CENTER_NAME":"EARTH","OBJECT_NAME":"STARLINK-2578","MEAN_MOTION_DOT":"0.00005009","OBJECT_ID":"2021-038K","CLASSIFICATION_TYPE":"U","TIME_SYSTEM":"UTC","APOAPSIS":"548.092","BSTAR":"0.00035478000000","MEAN_MOTION":"15.06414140","INCLINATION":"53.0567","LAUNCH_DATE":"2021-05-04","EPHEMERIS_TYPE":"0","SITE":"AFETR","SEMIMAJOR_AXIS":"6925.305","RA_OF_ASC_NODE":"17.9584"},{"LAUNCH_DATE":"2021-05-04","INCLINATION":"53.0540","RA_OF_ASC_NODE":"12.8409","SEMIMAJOR_AXIS":"6925.358","SITE":"AFETR","EPHEMERIS_TYPE":"0","OBJECT_NAME":"STARLINK-2626","CENTER_NAME":"EARTH","TLE_LINE2":"2 48363  53.0540  12.8409 0001511  99.4602 260.6558 15.06396986 97332","APOAPSIS":"548.269","CLASSIFICATION_TYPE":"U","TIME_SYSTEM":"UTC","BSTAR":"0.00007083300000","MEAN_MOTION":"15.06396986","MEAN_MOTION_DOT":"0.00000774","OBJECT_ID":"2021-038L","FILE":"3777208","PERIAPSIS":"546.176","DECAY_DATE":null,"REF_FRAME":"TEME","PERIOD":"95.592","GP_ID":"224702906","ECCENTRICITY":"0.00015110","EPOCH":"2023-02-07T09:02:37.297248","REV_AT_EPOCH":"9733","MEAN_MOTION_DDOT":"0.0000000000000","OBJECT_TYPE":"PAYLOAD","RCS_SIZE":"LARGE","MEAN_ELEMENT_THEORY":"SGP4","MEAN_ANOMALY":"260.6558","ELEMENT_SET_NO":"999","COUNTRY_CODE":"US","TLE_LINE1":"1 48363U 21038L   23038.37682057  .00000774  00000-0  70833-4 0  9995","ARG_OF_PERICENTER":"99.4602","NORAD_CAT_ID":"48363"},{"TLE_LINE2":"2 48364  53.0547  13.2717 0001523  99.1322 260.9839 15.06405837 97326","OBJECT_NAME":"STARLINK-2611","CENTER_NAME":"EARTH","MEAN_MOTION_DOT":"0.00002701","OBJECT_ID":"2021-038M","APOAPSIS":"548.250","TIME_SYSTEM":"UTC","CLASSIFICATION_TYPE":"U","MEAN_MOTION":"15.06405837","BSTAR":"0.00020011000000","INCLINATION":"53.0547","LAUNCH_DATE":"2021-05-04","EPHEMERIS_TYPE":"0","SITE":"AFETR","RA_OF_ASC_NODE":"13.2717","SEMIMAJOR_AXIS":"6925.331","OBJECT_TYPE":"PAYLOAD","RCS_SIZE":"LARGE","MEAN_ANOMALY":"260.9839","MEAN_ELEMENT_THEORY":"SGP4","REV_AT_EPOCH":"9732","MEAN_MOTION_DDOT":"0.0000000000000","NORAD_CAT_ID":"48364","ELEMENT_SET_NO":"999","COUNTRY_CODE":"US","TLE_LINE1":"1 48364U 21038M   23038.32524069  .00002701  00000-0  20011-3 0  9993","ARG_OF_PERICENTER":"99.1322","DECAY_DATE":null,"FILE":"3777208","PERIAPSIS":"546.141","EPOCH":"2023-02-07T07:48:20.795616","ECCENTRICITY":"0.00015230","REF_FRAME":"TEME","PERIOD":"95.592","GP_ID":"224703152"},{"EPOCH":"2023-02-07T21:09:46.706112","ECCENTRICITY":"0.00011030","GP_ID":"224742065","PERIOD":"95.592","REF_FRAME":"TEME","DECAY_DATE":null,"PERIAPSIS":"546.458","FILE":"3777976","NORAD_CAT_ID":"48365","ARG_OF_PERICENTER":"94.9240","TLE_LINE1":"1 48365U 21038N   23038.88179058 -.00001661  00000-0 -92648-4 0  9991","COUNTRY_CODE":"US","ELEMENT_SET_NO":"999","MEAN_ANOMALY":"265.1875","MEAN_ELEMENT_THEORY":"SGP4","RCS_SIZE":"LARGE","OBJECT_TYPE":"PAYLOAD","MEAN_MOTION_DDOT":"0.0000000000000","REV_AT_EPOCH":"9741","SITE":"AFETR","EPHEMERIS_TYPE":"0","SEMIMAJOR_AXIS":"6925.357","RA_OF_ASC_NODE":"10.5599","INCLINATION":"53.0548","LAUNCH_DATE":"2021-05-04","OBJECT_ID":"2021-038N","MEAN_MOTION_DOT":"-0.00001661","MEAN_MOTION":"15.06397255","BSTAR":"-0.00009264800000","CLASSIFICATION_TYPE":"U","TIME_SYSTEM":"UTC","APOAPSIS":"547.986","TLE_LINE2":"2 48365  53.0548  10.5599 0001103  94.9240 265.1875 15.06397255 97413","CENTER_NAME":"EARTH","OBJECT_NAME":"STARLINK-2608"},{"RA_OF_ASC_NODE":"7.7096","SEMIMAJOR_AXIS":"6925.232","EPHEMERIS_TYPE":"0","SITE":"AFETR","LAUNCH_DATE":"2021-05-04","INCLINATION":"53.0539","MEAN_MOTION":"15.06437869","BSTAR":"0.00107600000000","APOAPSIS":"548.035","TIME_SYSTEM":"UTC","CLASSIFICATION_TYPE":"U","OBJECT_ID":"2021-038P","MEAN_MOTION_DOT":"0.00015798","OBJECT_NAME":"STARLINK-2631","CENTER_NAME":"EARTH","TLE_LINE2":"2 48366  53.0539   7.7096 0001354 107.0928 253.0209 15.06437869 97403","GP_ID":"224703642","PERIOD":"95.590","REF_FRAME":"TEME","ECCENTRICITY":"0.00013540","EPOCH":"2023-02-07T09:43:04.464192","FILE":"3777208","PERIAPSIS":"546.160","DECAY_DATE":null,"TLE_LINE1":"1 48366U 21038P   23038.40491278  .00015798  00000-0  10760-2 0  9998","ARG_OF_PERICENTER":"107.0928","ELEMENT_SET_NO":"999","COUNTRY_CODE":"US","NORAD_CAT_ID":"48366","REV_AT_EPOCH":"9740","MEAN_MOTION_DDOT":"0.0000000000000","RCS_SIZE":"LARGE","MEAN_ANOMALY":"253.0209","MEAN_ELEMENT_THEORY":"SGP4","OBJECT_TYPE":"PAYLOAD"},{"TLE_LINE2":"2 48367  53.0546   5.3432 0001677  99.3062 260.8117 15.06399104 97481","CENTER_NAME":"EARTH","OBJECT_NAME":"STARLINK-2643","OBJECT_ID":"2021-038Q","MEAN_MOTION_DOT":"-0.00001348","BSTAR":"-0.00007161600000","MEAN_MOTION":"15.06399104","TIME_SYSTEM":"UTC","CLASSIFICATION_TYPE":"U","APOAPSIS":"548.378","INCLINATION":"53.0546","LAUNCH_DATE":"2021-05-04","SITE":"AFETR","EPHEMERIS_TYPE":"0","SEMIMAJOR_AXIS":"6925.351","RA_OF_ASC_NODE":"5.3432","MEAN_ELEMENT_THEORY":"SGP4","MEAN_ANOMALY":"260.8117","RCS_SIZE":"LARGE","OBJECT_TYPE":"PAYLOAD","MEAN_MOTION_DDOT":"0.0000000000000","REV_AT_EPOCH":"9748","NORAD_CAT_ID":"48367","ARG_OF_PERICENTER":"99.3062","TLE_LINE1":"1 48367U 21038Q   23038.93201228 -.00001348  00000-0 -71616-4 0  9998","COUNTRY_CODE":"US","ELEMENT_SET_NO":"999","DECAY_DATE":null,"PERIAPSIS":"546.055","FILE":"3777976","ECCENTRICITY":"0.00016770","EPOCH":"2023-02-07T22:22:05.860992","PERIOD":"95.592","GP_ID":"224742565","REF_FRAME":"TEME"},{"RA_OF_ASC_NODE":"8.4026","SEMIMAJOR_AXIS":"6925.276","SITE":"AFETR","EPHEMERIS_TYPE":"0","LAUNCH_DATE":"2021-05-04","INCLINATION":"53.0558","MEAN_MOTION":"15.06423803","BSTAR":"0.00010457000000","APOAPSIS":"548.202","TIME_SYSTEM":"UTC","CLASSIFICATION_TYPE":"U","OBJECT_ID":"2021-038R","MEAN_MOTION_DOT":"0.00001277","OBJECT_NAME":"STARLINK-2623","CENTER_NAME":"EARTH","TLE_LINE2":"2 48368  53.0558   8.4026 0001533  96.6088 263.5076 15.06423803 97395","GP_ID":"224702652","PERIOD":"95.591","REF_FRAME":"TEME","EPOCH":"2023-02-07T07:30:25.414560","ECCENTRICITY":"0.00015330","FILE":"3777208","PERIAPSIS":"546.079","DECAY_DATE":null,"TLE_LINE1":"1 48368U 21038R   23038.31279415  .00001277  00000-0  10457-3 0  9998","ARG_OF_PERICENTER":"96.6088","ELEMENT_SET_NO":"999","COUNTRY_CODE":"US","NORAD_CAT_ID":"48368","REV_AT_EPOCH":"9739","MEAN_MOTION_DDOT":"0.0000000000000","RCS_SIZE":"LARGE","MEAN_ANOMALY":"263.5076","MEAN_ELEMENT_THEORY":"SGP4","OBJECT_TYPE":"PAYLOAD"},{"LAUNCH_DATE":"2021-05-04","INCLINATION":"53.0538","RA_OF_ASC_NODE":"5.3595","SEMIMAJOR_AXIS":"6925.335","SITE":"AFETR","EPHEMERIS_TYPE":"0","OBJECT_NAME":"STARLINK-2641","CENTER_NAME":"EARTH","TLE_LINE2":"2 48369  53.0538   5.3595 0001743 102.7730 257.3454 15.06404506 97487","APOAPSIS":"548.407","TIME_SYSTEM":"UTC","CLASSIFICATION_TYPE":"U","MEAN_MOTION":"15.06404506","BSTAR":"0.00055706000000","MEAN_MOTION_DOT":"0.00008027","OBJECT_ID":"2021-038S","FILE":"3777976","PERIAPSIS":"545.993","DECAY_DATE":null,"REF_FRAME":"TEME","PERIOD":"95.592","GP_ID":"224741565","ECCENTRICITY":"0.00017430","EPOCH":"2023-02-07T22:16:47.390592","REV_AT_EPOCH":"9748","MEAN_MOTION_DDOT":"0.0000000000000","OBJECT_TYPE":"PAYLOAD","RCS_SIZE":"LARGE","MEAN_ELEMENT_THEORY":"SGP4","MEAN_ANOMALY":"257.3454","ELEMENT_SET_NO":"999","COUNTRY_CODE":"US","TLE_LINE1":"1 48369U 21038S   23038.92832628  .00008027  00000-0  55706-3 0  9993","ARG_OF_PERICENTER":"102.7730","NORAD_CAT_ID":"48369"},{"FILE":"3777566","PERIAPSIS":"546.083","DECAY_DATE":null,"REF_FRAME":"TEME","GP_ID":"224713227","PERIOD":"95.591","EPOCH":"2023-02-07T07:51:37.298592","ECCENTRICITY":"0.00015680","REV_AT_EPOCH":"9798","MEAN_MOTION_DDOT":"0.0000000000000","OBJECT_TYPE":"PAYLOAD","RCS_SIZE":"LARGE","MEAN_ELEMENT_THEORY":"SGP4","MEAN_ANOMALY":"270.9766","ELEMENT_SET_NO":"999","COUNTRY_CODE":"US","TLE_LINE1":"1 48370U 21038T   23038.32751503  .00004232  00000-0  30272-3 0  9996","ARG_OF_PERICENTER":"89.1402","NORAD_CAT_ID":"48370","LAUNCH_DATE":"2021-05-04","INCLINATION":"53.0550","RA_OF_ASC_NODE":"8.0571","SEMIMAJOR_AXIS":"6925.304","SITE":"AFETR","EPHEMERIS_TYPE":"0","OBJECT_NAME":"STARLINK-2621","CENTER_NAME":"EARTH","TLE_LINE2":"2 48370  53.0550   8.0571 0001568  89.1402 270.9766 15.06414419 97982","APOAPSIS":"548.255","TIME_SYSTEM":"UTC","CLASSIFICATION_TYPE":"U","BSTAR":"0.00030272000000","MEAN_MOTION":"15.06414419","MEAN_MOTION_DOT":"0.00004232","OBJECT_ID":"2021-038T"},{"REF_FRAME":"TEME","GP_ID":"224702907","PERIOD":"95.591","ECCENTRICITY":"0.00015750","EPOCH":"2023-02-07T04:35:14.467488","PERIAPSIS":"546.089","FILE":"3777208","DECAY_DATE":null,"COUNTRY_CODE":"US","ELEMENT_SET_NO":"999","ARG_OF_PERICENTER":"92.3090","TLE_LINE1":"1 48371U 21038U   23038.19113967  .00004428  00000-0  31589-3 0  9997","NORAD_CAT_ID":"48371","MEAN_MOTION_DDOT":"0.0000000000000","REV_AT_EPOCH":"9737","OBJECT_TYPE":"PAYLOAD","MEAN_ELEMENT_THEORY":"SGP4","MEAN_ANOMALY":"267.8079","RCS_SIZE":"LARGE","SEMIMAJOR_AXIS":"6925.314","RA_OF_ASC_NODE":"8.6672","EPHEMERIS_TYPE":"0","SITE":"AFETR","LAUNCH_DATE":"2021-05-04","INCLINATION":"53.0543","TIME_SYSTEM":"UTC","CLASSIFICATION_TYPE":"U","APOAPSIS":"548.270","BSTAR":"0.00031589000000","MEAN_MOTION":"15.06411120","MEAN_MOTION_DOT":"0.00004428","OBJECT_ID":"2021-038U","CENTER_NAME":"EARTH","OBJECT_NAME":"STARLINK-2589","TLE_LINE2":"2 48371  53.0543   8.6672 0001575  92.3090 267.8079 15.06411120 97371"}];
